SKYSAT-C1               
1 41601U 16040C   26199.80102519  .00004865  00000+0  13746-3 0  9992
2 41601  96.9549 229.8149 0000422 211.1018 149.0202 15.36783549562724
LAPAN-A3                
1 41603U 16040E   26199.97530847  .00001616  00000+0  52515-4 0  9990
2 41603  97.1507 195.0833 0008278 259.4249 100.6061 15.33291144559684
GAOFEN-3                
1 41727U 16049A   26199.99782617 -.00000148  00000+0 -31612-4 0  9998
2 41727  98.4017 207.3043 0001747  83.2174 276.9215 14.42218490523237
SKYSAT-C4               
1 41771U 16058B   26199.85560971  .00009989  00000+0  18286-3 0  9990
2 41771  96.9169 220.3204 0003536 113.2946 246.8678 15.49511206550373
SKYSAT-C5               
1 41772U 16058C   26199.86488846  .00003754  00000+0  11730-3 0  9993
2 41772  97.0451 239.0806 0002948 151.1874 208.9533 15.33747628548606
SKYSAT-C2               
1 41773U 16058D   26199.78893846  .00006485  00000+0  15037-3 0  9993
2 41773  97.0160 220.7072 0000941 331.9832  28.1366 15.42728957549925
SKYSAT-C3               
1 41774U 16058E   26199.51879048  .00013282  00000+0  20828-3 0  9990
2 41774  96.8991 229.1846 0002701 129.3372 230.8123 15.53801896550977
ALSAT-1B                
1 41785U 16059C   26199.91087497 -.00000031  00000+0  26048-5 0  9997
2 41785  97.7755 207.3064 0010561 119.3161 240.9104 14.72295123525248
PATHFINDER 1            
1 41787U 16059E   26199.90656905  .00000266  00000+0  54519-4 0  9996
2 41787  97.8178 197.7531 0029934 104.4859 255.9670 14.67695559524361
SCATSAT 1               
1 41790U 16059H   26199.93122915  .00000623  00000+0  88405-4 0  9990
2 41790  98.1175 264.0228 0055482 144.7155 215.7748 14.79592530106285
GOKTURK 1A              
1 41875U 16073A   26199.98495435  .00000249  00000+0  57890-4 0  9993
2 41875  98.1206  94.1552 0001430  81.5496 278.5868 14.62795018513477
RESOURCESAT-2A          
1 41877U 16074A   26199.95403252  .00000017  00000+0  27821-4 0  9993
2 41877  98.7515 273.1970 0002147  19.8178 340.3082 14.21609495498812
CARTOSAT-2D             
1 41948U 17008A   26199.97054359  .00001942  00000+0  95185-4 0  9998
2 41948  97.4083 258.6796 0006271 128.9035 231.2760 15.19299349522402
SENTINEL-2B             
1 42063U 17013A   26199.95576515  .00000060  00000+0  39578-4 0  9998
2 42063  98.5680 274.2803 0001224  94.2894 265.8428 14.30815922489184
CARTOSAT-2E             
1 42767U 17036C   26199.92252078  .00001366  00000+0  67973-4 0  9996
2 42767  97.4253 259.1986 0003609 174.6518 185.4756 15.19267732502969
FORMOSAT-5              
1 42920U 17049A   26199.91381580  .00000032  00000+0  19118-4 0  9998
2 42920  98.2244 274.5173 0011072 352.2897   7.8126 14.50908397471275
SENTINEL-5P             
1 42969U 17064A   26199.85003884  .00000004  00000+0  22990-4 0  9990
2 42969  98.7929 141.7574 0001164  94.0108 266.1201 14.19523593454057
SKYSAT-C11              
1 42987U 17068A   26199.89944921  .00018541  00000+0  23554-3 0  9995
2 42987  97.4389 350.1556 0001372 153.3498 206.7829 15.59456696488182
SKYSAT-C10              
1 42988U 17068B   26199.91074610  .00005899  00000+0  17528-3 0  9994
2 42988  97.4546 337.0854 0001517 111.4677 248.6728 15.35160800487228
SKYSAT-C9               
1 42989U 17068C   26199.90794159  .00006998  00000+0  16462-3 0  9998
2 42989  97.4467 338.3256 0008323  32.6889 327.4872 15.42268411487649
SKYSAT-C8               
1 42990U 17068D   26199.89838995  .00005624  00000+0  15505-3 0  9997
2 42990  97.4564 336.9950 0001259 105.1163 255.0221 15.37534183487185
SKYSAT-C7               
1 42991U 17068E   26199.89299090  .00005570  00000+0  15377-3 0  9992
2 42991  97.4574 337.9814 0005367   8.6859 351.4478 15.37483893487243
SKYSAT-C6               
1 42992U 17068F   26199.91074246  .00004915  00000+0  15086-3 0  9999
2 42992  97.4612 337.8361 0005013  79.9039 280.2769 15.34206948487188
CARTOSAT-2F             
1 43111U 18004A   26199.95525228  .00002281  00000+0  11166-3 0  9998
2 43111  97.4768 259.2764 0002520 126.7875 233.3591 15.19190283472157
GAOFEN-1 02             
1 43259U 18031A   26199.94746112  .00000599  00000+0  93526-4 0  9998
2 43259  98.0508 262.3830 0001469 261.3717  98.7326 14.76475546447386
GAOFEN-1 03             
1 43260U 18031B   26199.92558287  .00000314  00000+0  52591-4 0  9994
2 43260  98.0501 262.2159 0002112   4.4092 355.7136 14.76465309447372
GAOFEN-1 04             
1 43262U 18031D   26199.96907834  .00000033  00000+0  12074-4 0  9996
2 43262  98.0508 262.4542 0001018  51.0062 309.1238 14.76440093447377
SENTINEL-3B             
1 43437U 18039A   26199.88840155  .00000040  00000+0  34743-4 0  9996
2 43437  98.6233 266.9633 0001232 118.8601 241.2703 14.26736983428644
GAOFEN-5 01             
1 43461U 18043A   26199.91637947  .00000139  00000+0  38600-4 0  9990
2 43461  98.4592 172.1733 0001874  24.4451 335.6837 14.60624782436324
GAOFEN-6                
1 43484U 18048A   26199.92403418 -.00000112  00000+0 -84810-5 0  9993
2 43484  98.0951 262.6346 0012063  71.1634 289.0883 14.76384408438075
