OBJECT_NAME,OBJECT_ID,EPOCH,MEAN_MOTION,ECCENTRICITY,INCLINATION,RA_OF_ASC_NODE,ARG_OF_PERICENTER,MEAN_ANOMALY,EPHEMERIS_TYPE,CLASSIFICATION_TYPE,NORAD_CAT_ID,ELEMENT_SET_NO,REV_AT_EPOCH,BSTAR,MEAN_MOTION_DOT,MEAN_MOTION_DDOT
SKYSAT-C1,2016-040C,2026-07-18T19:13:28.576416,15.36783549,.00004223,96.9549,229.8149,211.1018,149.0202,0,U,41601,999,56272,.13746029E-3,.4865E-4,0
LAPAN-A3,2016-040E,2026-07-18T23:24:26.651808,15.33291144,.00082784,97.1507,195.0833,259.4249,100.6061,0,U,41603,999,55968,.52515179E-4,.1616E-4,0
GAOFEN-3,2016-049A,2026-07-18T23:56:52.181088,14.42218490,.00017474,98.4017,207.3043,83.2174,276.9215,0,U,41727,999,52323,-.31611992E-4,-.148E-5,0
SKYSAT-C4,2016-058B,2026-07-18T20:32:04.678944,15.49511206,.00035364,96.9169,220.3204,113.2946,246.8678,0,U,41771,999,55037,.18285692E-3,.9989E-4,0
SKYSAT-C5,2016-058C,2026-07-18T20:45:26.362944,15.33747628,.00029485,97.0451,239.0806,151.1874,208.9533,0,U,41772,999,54860,.11729794E-3,.3754E-4,0
SKYSAT-C2,2016-058D,2026-07-18T18:56:04.282944,15.42728957,.00009419,97.0160,220.7072,331.9832,28.1366,0,U,41773,999,54992,.15037469E-3,.6485E-4,0
SKYSAT-C3,2016-058E,2026-07-18T12:27:03.497472,15.53801896,.00027014,96.8991,229.1846,129.3372,230.8123,0,U,41774,999,55097,.2082785E-3,.13282E-3,0
ALSAT-1B,2016-059C,2026-07-18T21:51:39.597408,14.72295123,.00105612,97.7755,207.3064,119.3161,240.9104,0,U,41785,999,52524,.2604796E-5,-.31E-6,0
PATHFINDER 1,2016-059E,2026-07-18T21:45:27.565920,14.67695559,.00299347,97.8178,197.7531,104.4859,255.9670,0,U,41787,999,52436,.54518516E-4,.266E-5,0
SCATSAT 1,2016-059H,2026-07-18T22:20:58.198560,14.79592530,.0055482,98.1175,264.0228,144.7155,215.7748,0,U,41790,999,10628,.88404758E-4,.623E-5,0
GOKTURK 1A,2016-073A,2026-07-18T23:38:20.055840,14.62795018,.00014301,98.1206,94.1552,81.5496,278.5868,0,U,41875,999,51347,.57889609E-4,.249E-5,0
RESOURCESAT-2A,2016-074A,2026-07-18T22:53:48.409728,14.21609495,.00021472,98.7515,273.1970,19.8178,340.3082,0,U,41877,999,49881,.27820921E-4,.17E-6,0
CARTOSAT-2D,2017-008A,2026-07-18T23:17:34.966176,15.19299349,.00062716,97.4083,258.6796,128.9035,231.2760,0,U,41948,999,52240,.95185086E-4,.1942E-4,0
SENTINEL-2B,2017-013A,2026-07-18T22:56:18.108960,14.30815922,.00012241,98.5680,274.2803,94.2894,265.8428,0,U,42063,999,48918,.39577864E-4,.6E-6,0
CARTOSAT-2E,2017-036C,2026-07-18T22:08:25.795392,15.19267732,.00036093,97.4253,259.1986,174.6518,185.4756,0,U,42767,999,50296,.6797273E-4,.1366E-4,0
FORMOSAT-5,2017-049A,2026-07-18T21:55:53.685120,14.50908397,.00110722,98.2244,274.5173,352.2897,7.8126,0,U,42920,999,47127,.19118421E-4,.32E-6,0
SENTINEL-5P,2017-064A,2026-07-18T20:24:03.355776,14.19523593,.00011644,98.7929,141.7574,94.0108,266.1201,0,U,42969,999,45405,.22989633E-4,.4E-7,0
SKYSAT-C11,2017-068A,2026-07-18T21:35:12.411744,15.59456696,.00013726,97.4389,350.1556,153.3498,206.7829,0,U,42987,999,48818,.23554323E-3,.18541E-3,0
SKYSAT-C10,2017-068B,2026-07-18T21:51:28.463040,15.35160800,.00015172,97.4546,337.0854,111.4677,248.6728,0,U,42988,999,48722,.17528408E-3,.5899E-4,0
SKYSAT-C9,2017-068C,2026-07-18T21:47:26.153376,15.42268411,.0008323,97.4467,338.3256,32.6889,327.4872,0,U,42989,999,48764,.16461838E-3,.6998E-4,0
SKYSAT-C8,2017-068D,2026-07-18T21:33:40.891680,15.37534183,.00012591,97.4564,336.9950,105.1163,255.0221,0,U,42990,999,48718,.15505332E-3,.5624E-4,0
SKYSAT-C7,2017-068E,2026-07-18T21:25:54.413760,15.37483893,.00053671,97.4574,337.9814,8.6859,351.4478,0,U,42991,999,48724,.15377346E-3,.557E-4,0
SKYSAT-C6,2017-068F,2026-07-18T21:51:28.148544,15.34206948,.00050135,97.4612,337.8361,79.9039,280.2769,0,U,42992,999,48718,.15086285E-3,.4915E-4,0
CARTOSAT-2F,2018-004A,2026-07-18T22:55:33.796992,15.19190283,.00025202,97.4768,259.2764,126.7875,233.3591,0,U,43111,999,47215,.11165661E-3,.2281E-4,0
GAOFEN-1 02,2018-031A,2026-07-18T22:44:20.640768,14.76475546,.00014696,98.0508,262.3830,261.3717,98.7326,0,U,43259,999,44738,.93525605E-4,.599E-5,0
GAOFEN-1 03,2018-031B,2026-07-18T22:12:50.359968,14.76465309,.00021125,98.0501,262.2159,4.4092,355.7136,0,U,43260,999,44737,.52591413E-4,.314E-5,0
GAOFEN-1 04,2018-031D,2026-07-18T23:15:28.368576,14.76440093,.0001018,98.0508,262.4542,51.0062,309.1238,0,U,43262,999,44737,.12074398E-4,.33E-6,0
SENTINEL-3B,2018-039A,2026-07-18T21:19:17.893920,14.26736983,.00012326,98.6233,266.9633,118.8601,241.2703,0,U,43437,999,42864,.34743424E-4,.4E-6,0
GAOFEN-5 01,2018-043A,2026-07-18T21:59:35.186208,14.60624782,.00018746,98.4592,172.1733,24.4451,335.6837,0,U,43461,999,43632,.38599992E-4,.139E-5,0
GAOFEN-6,2018-048A,2026-07-18T22:10:36.553152,14.76384408,.00120632,98.0951,262.6346,71.1634,289.0883,0,U,43484,999,43807,-.8480993E-5,-.112E-5,0
